{
"type": "FeatureCollection",
"name": "Abuja_FCT_Boundary",
"crs": { "type": "name", "properties": { "name": "urn:ogc:def:crs:OGC:1.3:CRS84" } },
"features": [
{ "type": "Feature", "properties": { "Shape_Leng": 3.42954726949, "STATUS": "Member State", "ADM1_CODE": 2221, "ADM0_NAME": "Nigeria", "ADM0_CODE": 182, "EXP1_YEAR": 3000, "Shape_Area": 0.60426039972199996, "DISP_AREA": "NO", "STR1_YEAR": 1000, "ADM1_NAME": "Abuja" }, "geometry": { "type": "Polygon", "coordinates": [ [ [ 6.746334548283604, 8.997467117479134 ], [ 6.747632094759703, 8.997462597614765 ], [ 6.747409124327274, 9.000713297239972 ], [ 6.747186236333238, 9.00401307920432 ], [ 6.746847291241672, 9.008962640265672 ], [ 6.747850573867241, 9.03190030569878 ], [ 6.749125934839414, 9.041915411589539 ], [ 6.749504913423483, 9.044876232894516 ], [ 6.750169356446649, 9.060398383927428 ], [ 6.74998648078979, 9.066658980666002 ], [ 6.749554001107598, 9.081467671671078 ], [ 6.75030314432956, 9.105328254953232 ], [ 6.75147588288657, 9.118767984270521 ], [ 6.751154802959369, 9.128306009852867 ], [ 6.751016602677546, 9.132305858045013 ], [ 6.750976416830771, 9.133585572657296 ], [ 6.75030314432956, 9.157669219697855 ], [ 6.749562903870205, 9.185685750889071 ], [ 6.749772486709955, 9.20028034068123 ], [ 6.751779076583913, 9.20677283554309 ], [ 6.752073368605612, 9.216734485359286 ], [ 6.757629392313523, 9.222789890232201 ], [ 6.767033627749203, 9.224693952831569 ], [ 6.778350877145713, 9.225224554063923 ], [ 6.788950170320627, 9.226441898125005 ], [ 6.800954027439247, 9.228131932930765 ], [ 6.808030611623979, 9.228403942214891 ], [ 6.817697989190396, 9.228925629132306 ], [ 6.834936883119257, 9.22832809895564 ], [ 6.856866673990592, 9.229148595288754 ], [ 6.86674365035084, 9.231061557452724 ], [ 6.875965058548855, 9.23018753812056 ], [ 6.887558677894426, 9.228631345384089 ], [ 6.906055085902829, 9.229162005456097 ], [ 6.920609592561584, 9.229692650436405 ], [ 6.930927905804079, 9.232657898037232 ], [ 6.940836043832201, 9.231257723585397 ], [ 6.963185066337345, 9.232403746209924 ], [ 6.979014872864869, 9.235712367812264 ], [ 6.991518216242398, 9.231155197173187 ], [ 7.007512998632362, 9.225594695704945 ], [ 7.016154675800887, 9.214571776257005 ], [ 7.036711197490781, 9.19903624944426 ], [ 7.049571216484746, 9.18851726945562 ], [ 7.063131306117237, 9.179393986697473 ], [ 7.073757386865276, 9.166310987704021 ], [ 7.09011340150409, 9.150507891386711 ], [ 7.104806135681588, 9.139079219687497 ], [ 7.117741916745069, 9.12995143552536 ], [ 7.120198888188712, 9.126888035598089 ], [ 7.126789452399633, 9.118705562218906 ], [ 7.137687533583393, 9.106781973361814 ], [ 7.145865526821708, 9.098996329375986 ], [ 7.155960910963259, 9.09561632621285 ], [ 7.163835709884393, 9.097614071121807 ], [ 7.16390253231546, 9.097631877689066 ], [ 7.163969436996275, 9.097649682630374 ], [ 7.164468840691026, 9.097774545598224 ], [ 7.164673995096937, 9.097828040605769 ], [ 7.166689489682846, 9.098340884417695 ], [ 7.170274640577411, 9.099250524753618 ], [ 7.171046012305651, 9.09944675895164 ], [ 7.177484977880252, 9.110135232960289 ], [ 7.185292912931034, 9.121782345355079 ], [ 7.185903800427154, 9.12269205363957 ], [ 7.197359175599217, 9.141054620135639 ], [ 7.206054444299265, 9.150837832754016 ], [ 7.210740957472136, 9.156197732963298 ], [ 7.22404691981031, 9.173878043904129 ], [ 7.23505641804163, 9.191772414933 ], [ 7.244219933987766, 9.202487657299812 ], [ 7.252148202745652, 9.213653244010123 ], [ 7.261307207873455, 9.228292469920941 ], [ 7.27181278526755, 9.244568175900991 ], [ 7.276004375290779, 9.252460803883197 ], [ 7.284097676190557, 9.258774906049773 ], [ 7.29445164180598, 9.276201055290812 ], [ 7.298647680825485, 9.284098119306606 ], [ 7.303958511972727, 9.293390833795581 ], [ 7.308836742138264, 9.297363941953444 ], [ 7.31085226706028, 9.297493232519701 ], [ 7.312943553791301, 9.297631465167823 ], [ 7.322062425596825, 9.297256944617082 ], [ 7.3252640790311, 9.300057237771306 ], [ 7.338734986176954, 9.304342394634679 ], [ 7.363358189736969, 9.303419346844326 ], [ 7.378866873829012, 9.304953314020992 ], [ 7.39461198619442, 9.308101484610908 ], [ 7.409661444182968, 9.307552952601242 ], [ 7.432683765734541, 9.305457160783138 ], [ 7.451603776219597, 9.304480691862688 ], [ 7.461400449149275, 9.302491869506222 ], [ 7.475272658436217, 9.291995190850281 ], [ 7.48597450369719, 9.288860424103566 ], [ 7.495566032722263, 9.292418822953374 ], [ 7.504270226535001, 9.302433957096149 ], [ 7.512064690162322, 9.313826903802626 ], [ 7.515970885662331, 9.321260222102085 ], [ 7.525838852558083, 9.337295216785224 ], [ 7.533414936045261, 9.351229872602872 ], [ 7.541646431199166, 9.356852753264105 ], [ 7.550551260397863, 9.35993851499866 ], [ 7.557159600893834, 9.358614123340475 ], [ 7.567852555708104, 9.3529376843764 ], [ 7.57442525239209, 9.342601511763675 ], [ 7.577127489177907, 9.333616406739637 ], [ 7.581189683316396, 9.322103045522596 ], [ 7.583205197988635, 9.313340903501919 ], [ 7.589795806477515, 9.306933193693718 ], [ 7.591601737303891, 9.303022531141297 ], [ 7.604867564855531, 9.29872842687803 ], [ 7.605723690340124, 9.298451924912555 ], [ 7.606860767666817, 9.29808628914015 ], [ 7.616911535066371, 9.302567663385082 ], [ 7.621428664155056, 9.30766002369827 ], [ 7.622405139911686, 9.308395743673419 ], [ 7.625834208121393, 9.310741248239955 ], [ 7.626467412607846, 9.297346069054585 ], [ 7.628001376811088, 9.292646236731676 ], [ 7.628496320612999, 9.291125614333984 ], [ 7.624772949763507, 9.271679472462745 ], [ 7.619065270466088, 9.263381131117333 ], [ 7.617892581002008, 9.261682183254274 ], [ 7.606660071545762, 9.260950907101106 ], [ 7.601246706458428, 9.260598663673468 ], [ 7.600341583336844, 9.259555180468755 ], [ 7.592770013866002, 9.250815342008599 ], [ 7.589991987755783, 9.242436709072413 ], [ 7.584694543105276, 9.226477629720359 ], [ 7.576173230932176, 9.203985932164452 ], [ 7.57207081412497, 9.185931004220768 ], [ 7.571071975626809, 9.181525412580839 ], [ 7.56440121110293, 9.166212832799411 ], [ 7.558622180850316, 9.146057673096367 ], [ 7.558987830663389, 9.138709117284886 ], [ 7.559465005330839, 9.129184499480363 ], [ 7.559893076449925, 9.120654223656848 ], [ 7.559081496183468, 9.115646615599825 ], [ 7.557529707087335, 9.106032790371435 ], [ 7.55615634774199, 9.097511477542565 ], [ 7.55674940285327, 9.091826112055443 ], [ 7.55695896563364, 9.089850744440724 ], [ 7.558136166374194, 9.078582611070177 ], [ 7.557453900057139, 9.058538963878657 ], [ 7.557364700816922, 9.055934822196601 ], [ 7.559607695410418, 9.045411373403834 ], [ 7.559616541210852, 9.045375688691555 ], [ 7.561395727879679, 9.037023804584157 ], [ 7.562474869296371, 9.032881273507938 ], [ 7.563406782129071, 9.029309502866816 ], [ 7.565663117998111, 9.020658903963266 ], [ 7.565159278476385, 9.00748668108881 ], [ 7.563964183115708, 9.004044229140197 ], [ 7.563562873797082, 9.00404426476738 ], [ 7.56288956565072, 9.004044275187837 ], [ 7.562421378933115, 9.000151459105838 ], [ 7.562318780071778, 8.999295310651323 ], [ 7.561944266599762, 8.998211778161727 ], [ 7.561988827807909, 8.997783671649017 ], [ 7.562069104199188, 8.996963211293432 ], [ 7.562118129890567, 8.996963210179519 ], [ 7.5621493806803, 8.996963238808828 ], [ 7.562818217201824, 8.968866379213878 ], [ 7.558992294859159, 8.95738425217672 ], [ 7.557239871688609, 8.952118011783215 ], [ 7.559692350612601, 8.932466767796999 ], [ 7.556767176398458, 8.90829399746878 ], [ 7.551255777256871, 8.895928885122405 ], [ 7.546413164079623, 8.881940675062303 ], [ 7.54488819043134, 8.873200840527785 ], [ 7.542881558120968, 8.863315031778951 ], [ 7.537909694855551, 8.855783591821531 ], [ 7.53442711557642, 8.840158939502288 ], [ 7.529468585528659, 8.833318645663592 ], [ 7.526828775860954, 8.827138328774813 ], [ 7.524697318365873, 8.82371379309572 ], [ 7.52377881637425, 8.809654228738689 ], [ 7.522967246240788, 8.8075227525317 ], [ 7.519680906028548, 8.79888103942158 ], [ 7.517923942323395, 8.790145663198869 ], [ 7.515854971387948, 8.77656766314489 ], [ 7.515208399700573, 8.765045347781609 ], [ 7.513398014640742, 8.752849725331977 ], [ 7.509888664730712, 8.735838270963068 ], [ 7.506963530419735, 8.726197695765029 ], [ 7.502700585389908, 8.719348499487118 ], [ 7.500243683817227, 8.695857926853652 ], [ 7.487450443236881, 8.690078931958727 ], [ 7.485274450998021, 8.683889701410777 ], [ 7.480231176707066, 8.671747606829063 ], [ 7.475317246351277, 8.653376066441785 ], [ 7.471072193534088, 8.639214000816388 ], [ 7.469948491061964, 8.635472830649043 ], [ 7.463099339367442, 8.625899103564905 ], [ 7.462867441145343, 8.62590360812198 ], [ 7.453128752320281, 8.608999144055623 ], [ 7.437410452869474, 8.593347698988959 ], [ 7.428438706305751, 8.581040571834164 ], [ 7.419458150907267, 8.568278596982534 ], [ 7.408595747491808, 8.553233621452504 ], [ 7.402892543655033, 8.543182806424275 ], [ 7.392137176967061, 8.534830909354186 ], [ 7.373284132859112, 8.525230485579479 ], [ 7.356589261594823, 8.520900636955799 ], [ 7.342583188553261, 8.511219918024008 ], [ 7.330463369549548, 8.504272707490713 ], [ 7.315784044147004, 8.49598762289836 ], [ 7.301118022524323, 8.488393794387502 ], [ 7.287415206331669, 8.483323801837427 ], [ 7.279683118259165, 8.476300692358317 ], [ 7.263443060986918, 8.471502708032357 ], [ 7.238886802711569, 8.466383668752361 ], [ 7.21804941450156, 8.462589001080151 ], [ 7.204832637353951, 8.45912429392733 ], [ 7.189252598605653, 8.452234961452533 ], [ 7.17993748468795, 8.447089199574553 ], [ 7.157887219118928, 8.439852017664549 ], [ 7.131511667559385, 8.436378417576689 ], [ 7.112529293835415, 8.433243689888723 ], [ 7.091246004070824, 8.430603868048847 ], [ 7.063657530757527, 8.423692260597921 ], [ 7.036171650709063, 8.422778116594253 ], [ 7.021376311337105, 8.421877445909493 ], [ 7.007183033271056, 8.41496577704075 ], [ 6.983362477651337, 8.412375101149721 ], [ 6.978154254698928, 8.411813231592518 ], [ 6.969209326799023, 8.410850033896985 ], [ 6.964861671859612, 8.410381814453753 ], [ 6.955528782519242, 8.404313028240434 ], [ 6.949888048174112, 8.404491374097557 ], [ 6.939373438138986, 8.404816878200583 ], [ 6.923895896383073, 8.404388831659402 ], [ 6.908690393753318, 8.40626608676101 ], [ 6.896262874096683, 8.408781033424932 ], [ 6.884655844871231, 8.407412081690477 ], [ 6.882613560565222, 8.40717130133109 ], [ 6.874966180309226, 8.405222655442987 ], [ 6.874359790273492, 8.404446817452852 ], [ 6.874257170975483, 8.404313007722912 ], [ 6.867113741794005, 8.405129018345605 ], [ 6.858614686657676, 8.4048882480204 ], [ 6.856951430989863, 8.404839185668775 ], [ 6.846820313339546, 8.406627293147363 ], [ 6.837826383526668, 8.40724259434495 ], [ 6.834950213947393, 8.406814538066032 ], [ 6.825327455943683, 8.405378734696281 ], [ 6.814478504404344, 8.405334126856587 ], [ 6.808164437182232, 8.403991912506385 ], [ 6.805444325368549, 8.403412254941118 ], [ 6.803098878267242, 8.404152489022435 ], [ 6.799157046986188, 8.405396531849195 ], [ 6.796940888600608, 8.406092211226168 ], [ 6.794880753853622, 8.40666737390023 ], [ 6.793997870655903, 8.40691267114158 ], [ 6.791656841603912, 8.407568173008144 ], [ 6.791558684184019, 8.407603790724069 ], [ 6.782475556011274, 8.410952646412714 ], [ 6.777463479536399, 8.423513911156521 ], [ 6.766266725858154, 8.45157501067054 ], [ 6.750963021557497, 8.489927769065101 ], [ 6.751012110355523, 8.492933205288496 ], [ 6.751034408607, 8.494431428176613 ], [ 6.751065609827696, 8.496384536140463 ], [ 6.7513732939606, 8.498163724623886 ], [ 6.752296355117885, 8.503505693930091 ], [ 6.752340952510171, 8.503746478960718 ], [ 6.757290555882173, 8.510122977963197 ], [ 6.757580380186705, 8.510573375271367 ], [ 6.758476654534432, 8.511946765294178 ], [ 6.758075322713009, 8.515612184171793 ], [ 6.757870205784811, 8.517493884388953 ], [ 6.757696293931082, 8.517953203809441 ], [ 6.757428769566861, 8.51865775309763 ], [ 6.751328697233067, 8.971394726181639 ], [ 6.748247431818037, 8.980901540697754 ], [ 6.748626486929584, 8.982765465905473 ], [ 6.748711184523266, 8.983171224480886 ], [ 6.749001052081678, 8.984584769717921 ], [ 6.748907451428948, 8.98458471868463 ], [ 6.748769174269302, 8.984584729015255 ], [ 6.748309913275242, 8.984593698459806 ], [ 6.748220724069208, 8.988985900854155 ], [ 6.748180539965166, 8.99105493312657 ], [ 6.746334548283604, 8.997467117479134 ] ] ] } }
]
}
